{"type":"FeatureCollection","name":"BS3_2PT","crs":{"type":"name","properties":{"name":"urn:ogc:def:crs:OGC:1.3:CRS84"}},"features":[{"type":"Feature","properties":{"mapit_code":"BS32PT","postcodes":"BS3 2PT"},"geometry":{"type":"Polygon","coordinates":[[
  
  [356724.0, 170654.8],
  [356687.0, 170637.3],
  [356674.0, 170632.05],
  [356652.0, 170624.0],
  [356637.0, 170621.9],
  [356599.0, 170614.55],
  [356582.0, 170612.0],
  [356550.0, 170606.85],
  [356531.0, 170603.0],
  [356493.0, 170596.0],
  [356500.0, 170549.0],
  [356590.0, 170564.85],
  [356654.0, 170576.75],
  [356695.0, 170587.0],
  [356727.0, 170601.6],
  [356752.0, 170618.05],
  [356724.0, 170654.8]
  
  ]]}}]}