{
"type": "FeatureCollection",
"name": "liskeard_one",
"crs": { "type": "name", "properties": { "name": "urn:ogc:def:crs:EPSG::27700" } },
"features": [
{ "type": "Feature", "properties": { "gml_id": "PREDEFINED.fid--1bd401b1_199b20dade4_36cc", "INSPIREID": 63794777, "LABEL": 63794777, "NATIONALCADASTRALREFERENCE": 63794777, "VALIDFROM": "2025-01-06T00:00:00Z", "BEGINLIFESPANVERSION": "2025-01-06T13:53:43.193Z" }, 
  "geometry": {
    "type": "Polygon",
    "coordinates": [
      [
        [
          226304.19,
          61608
        ],
        [
          226305.7,
          61607.9
        ],
        [
          226307.4,
          61608
        ],
        [
          226308.4,
          61607.9
        ],
        [
          226309.5,
          61607.8
        ],
        [
          226310.3,
          61607.6
        ],
        [
          226311,
          61607.3
        ],
        [
          226312.2,
          61606.7
        ],
        [
          226312.6,
          61606.4
        ],
        [
          226313.3,
          61606.3
        ],
        [
          226313.8,
          61606.2
        ],
        [
          226314.7,
          61606.1
        ],
        [
          226321.4,
          61605
        ],
        [
          226325.4,
          61604.5
        ],
        [
          226327.7,
          61603.8
        ],
        [
          226328.7,
          61603.5
        ],
        [
          226331.5,
          61602.1
        ],
        [
          226334.8,
          61599.7
        ],
        [
          226353.2,
          61584.5
        ],
        [
          226356.6,
          61582.1
        ],
        [
          226359,
          61580.8
        ],
        [
          226362.3,
          61578.7
        ],
        [
          226362.83,
          61578.41
        ],
        [
          226363.2,
          61578.5
        ],
        [
          226382,
          61576.5
        ],
        [
          226383.4,
          61576.2
        ],
        [
          226385.4,
          61575.8
        ],
        [
          226386.5,
          61575.9
        ],
        [
          226389.5,
          61575.9
        ],
        [
          226391.1,
          61575.7
        ],
        [
          226392.5,
          61575.5
        ],
        [
          226395.3,
          61574.5
        ],
        [
          226414.1,
          61567.1
        ],
        [
          226416,
          61566.4
        ],
        [
          226416.97,
          61566.13
        ],
        [
          226418.2,
          61566
        ],
        [
          226419.6,
          61565.9
        ],
        [
          226420.8,
          61565.9
        ],
        [
          226422.2,
          61565.8
        ],
        [
          226423.3,
          61565.6
        ],
        [
          226425.5,
          61564.6
        ],
        [
          226431.2,
          61561.7
        ],
        [
          226432.5,
          61561
        ],
        [
          226432.8,
          61560.9
        ],
        [
          226434.1,
          61560.5
        ],
        [
          226435.2,
          61560.4
        ],
        [
          226437.4,
          61560.7
        ],
        [
          226444.6,
          61562.1
        ],
        [
          226447.7,
          61562.8
        ],
        [
          226449.6,
          61563
        ],
        [
          226454.1,
          61563.1
        ],
        [
          226457.8,
          61563.4
        ],
        [
          226459.4,
          61563.7
        ],
        [
          226460.1,
          61563.7
        ],
        [
          226462.8,
          61563.3
        ],
        [
          226464.3,
          61562.9
        ],
        [
          226466.1,
          61562.5
        ],
        [
          226467,
          61562.1
        ],
        [
          226468.3,
          61562
        ],
        [
          226469.1,
          61562.2
        ],
        [
          226470.7,
          61562.9
        ],
        [
          226472.9,
          61564
        ],
        [
          226473.7,
          61564.6
        ],
        [
          226474.3,
          61564.7
        ],
        [
          226475.9,
          61564.8
        ],
        [
          226478.5,
          61565.2
        ],
        [
          226490.4,
          61566.2
        ],
        [
          226490.9,
          61566.2
        ],
        [
          226491.3,
          61566
        ],
        [
          226491.5,
          61565.5
        ],
        [
          226491.66,
          61563.95
        ],
        [
          226492.7,
          61564
        ],
        [
          226493.7,
          61563.9
        ],
        [
          226497,
          61563.2
        ],
        [
          226502.6,
          61562.1
        ],
        [
          226507.2,
          61560.7
        ],
        [
          226511.2,
          61559.6
        ],
        [
          226514.1,
          61558.7
        ],
        [
          226516.1,
          61558
        ],
        [
          226517.4,
          61557.6
        ],
        [
          226518.3,
          61557.1
        ],
        [
          226519.1,
          61556.6
        ],
        [
          226520.1,
          61556.2
        ],
        [
          226521,
          61555.6
        ],
        [
          226522.2,
          61555
        ],
        [
          226522.9,
          61554.6
        ],
        [
          226523.7,
          61554.1
        ],
        [
          226524.6,
          61553.5
        ],
        [
          226525.6,
          61553
        ],
        [
          226526.5,
          61552.3
        ],
        [
          226527.3,
          61551.8
        ],
        [
          226528.3,
          61550.9
        ],
        [
          226529.2,
          61550.4
        ],
        [
          226530.3,
          61549.5
        ],
        [
          226531.4,
          61548.7
        ],
        [
          226534,
          61547.8
        ],
        [
          226535.8,
          61546.5
        ],
        [
          226537.9,
          61545.5
        ],
        [
          226538.3,
          61545.4
        ],
        [
          226540.5,
          61544.7
        ],
        [
          226542.5,
          61544.4
        ],
        [
          226544.54,
          61544.44
        ],
        [
          226619.37,
          61620.65
        ],
        [
          226640.102,
          61640.254
        ],
        [
          226645.182,
          61644.937
        ],
        [
          226649.945,
          61646.604
        ],
        [
          226670.186,
          61652.319
        ],
        [
          226681.451,
          61654.875
        ],
        [
          226681.15,
          61655.95
        ],
        [
          226681.52,
          61660.61
        ],
        [
          226679.65,
          61664.69
        ],
        [
          226674.984,
          61672.494
        ],
        [
          226691.503,
          61676.691
        ],
        [
          226704.811,
          61677.631
        ],
        [
          226720.766,
          61666.24
        ],
        [
          226720.891,
          61661.175
        ],
        [
          226721.05,
          61654.76
        ],
        [
          226720.97,
          61651.84
        ],
        [
          226718.77,
          61651.9
        ],
        [
          226718.75,
          61651.05
        ],
        [
          226719.13,
          61649.83
        ],
        [
          226719.53,
          61649.23
        ],
        [
          226720.72,
          61648.34
        ],
        [
          226722.01,
          61647.94
        ],
        [
          226729.76,
          61647.05
        ],
        [
          226738.287,
          61649.675
        ],
        [
          226744.23,
          61645.3
        ],
        [
          226744.85,
          61645.09
        ],
        [
          226745.76,
          61644.66
        ],
        [
          226750.37,
          61643.12
        ],
        [
          226768.12,
          61640.99
        ],
        [
          226780.29,
          61639.74
        ],
        [
          226784.79,
          61639.49
        ],
        [
          226799.27,
          61638.9
        ],
        [
          226801.36,
          61636.98
        ],
        [
          226803.16,
          61636.16
        ],
        [
          226804.75,
          61635.54
        ],
        [
          226825.3,
          61628.62
        ],
        [
          226836.67,
          61625.08
        ],
        [
          226849.36,
          61620.87
        ],
        [
          226866.76,
          61615.51
        ],
        [
          226879.36,
          61611.18
        ],
        [
          226894.75,
          61606.55
        ],
        [
          226898.39,
          61605.46
        ],
        [
          226915.12,
          61600.14
        ],
        [
          226917.44,
          61599.61
        ],
        [
          226917.53,
          61599.59
        ],
        [
          226919.13,
          61599.93
        ],
        [
          226919.43,
          61600.04
        ],
        [
          226920.81,
          61600.57
        ],
        [
          226921.71,
          61600.99
        ],
        [
          226922,
          61601.09
        ],
        [
          226922.59,
          61601.51
        ],
        [
          226923.12,
          61603.39
        ],
        [
          226925.67,
          61616.63
        ],
        [
          226927.88,
          61627.15
        ],
        [
          226929.4,
          61634.76
        ],
        [
          226929.4,
          61638.72
        ],
        [
          226929.58,
          61642.92
        ],
        [
          226929.53,
          61645.74
        ],
        [
          226929.47,
          61647.49
        ],
        [
          226929.57,
          61650.37
        ],
        [
          226929.59,
          61654.77
        ],
        [
          226928.73,
          61663.36
        ],
        [
          226927.53,
          61679.07
        ],
        [
          226925.51,
          61694.22
        ],
        [
          226924.15,
          61701.49
        ],
        [
          226922.26,
          61712.01
        ],
        [
          226920.89,
          61720.09
        ],
        [
          226919.39,
          61725.99
        ],
        [
          226927.14,
          61728.52
        ],
        [
          226928.88,
          61729.34
        ],
        [
          226931.14,
          61729.49
        ],
        [
          226939.38,
          61730.72
        ],
        [
          226948.39,
          61732
        ],
        [
          226953.09,
          61732.4
        ],
        [
          226962.77,
          61733.52
        ],
        [
          226972.07,
          61734.97
        ],
        [
          226977.69,
          61736.4
        ],
        [
          226986,
          61756.68
        ],
        [
          226984.67,
          61762.44
        ],
        [
          226982.64,
          61770.17
        ],
        [
          226979.85,
          61780.17
        ],
        [
          226978.85,
          61784.13
        ],
        [
          226977.97,
          61788.85
        ],
        [
          226977.16,
          61793.85
        ],
        [
          226973.74,
          61815.57
        ],
        [
          226973.3,
          61819.53
        ],
        [
          226973.03,
          61822.91
        ],
        [
          226972.54,
          61834.29
        ],
        [
          226972.53,
          61834.92
        ],
        [
          226972.77,
          61840.02
        ],
        [
          226973.54,
          61858.12
        ],
        [
          226974.28,
          61866.62
        ],
        [
          226975.19,
          61878.02
        ],
        [
          226975.41,
          61882.3
        ],
        [
          226976.09,
          61896.64
        ],
        [
          226976.87,
          61915.04
        ],
        [
          226977.17,
          61929.05
        ],
        [
          226977.36,
          61942.2
        ],
        [
          226977.4,
          61951.46
        ],
        [
          226976.08,
          62000
        ],
        [
          226975.966,
          62002.008
        ],
        [
          226975.031,
          62008.148
        ],
        [
          226974.038,
          62019.26
        ],
        [
          226972.319,
          62034.077
        ],
        [
          226970.599,
          62044.33
        ],
        [
          226967.754,
          62053.855
        ],
        [
          226960.727,
          62050.289
        ],
        [
          226955.906,
          62050.316
        ],
        [
          226928.6,
          62050.47
        ],
        [
          226906.459,
          62050.934
        ],
        [
          226880.052,
          62051.487
        ],
        [
          226857.166,
          62051.111
        ],
        [
          226844.109,
          62049.527
        ],
        [
          226819.24,
          62046.51
        ],
        [
          226815.77,
          62046.11
        ],
        [
          226799.88,
          62044.06
        ],
        [
          226779.27,
          62042.24
        ],
        [
          226751.35,
          62039.37
        ],
        [
          226736.73,
          62038.23
        ],
        [
          226735,
          62035.73
        ],
        [
          226731.45,
          62037.65
        ],
        [
          226730.59,
          62037.55
        ],
        [
          226723.32,
          62036.49
        ],
        [
          226719.92,
          62035.51
        ],
        [
          226717.57,
          62035.13
        ],
        [
          226715.38,
          62034.98
        ],
        [
          226713.03,
          62034.52
        ],
        [
          226711.07,
          62034.3
        ],
        [
          226708.42,
          62033.99
        ],
        [
          226706.3,
          62033.84
        ],
        [
          226704.1,
          62033.69
        ],
        [
          226701.46,
          62034.52
        ],
        [
          226699.56,
          62035.13
        ],
        [
          226696.69,
          62035.66
        ],
        [
          226693.66,
          62036.79
        ],
        [
          226685.79,
          62038.76
        ],
        [
          226682.99,
          62039.52
        ],
        [
          226680.12,
          62040.35
        ],
        [
          226676.12,
          62041.57
        ],
        [
          226675.53,
          62041.72
        ],
        [
          226671.55,
          62039.44
        ],
        [
          226668.29,
          62042.94
        ],
        [
          226664.66,
          62044.38
        ],
        [
          226649.79,
          62049.85
        ],
        [
          226647.22,
          62050.91
        ],
        [
          226645.03,
          62051.59
        ],
        [
          226642.38,
          62052.27
        ],
        [
          226638.06,
          62053.82
        ],
        [
          226635.66,
          62054.51
        ],
        [
          226633.24,
          62055.12
        ],
        [
          226630.44,
          62055.95
        ],
        [
          226627.56,
          62056.63
        ],
        [
          226625.29,
          62057.16
        ],
        [
          226622.95,
          62057.61
        ],
        [
          226620.83,
          62058.29
        ],
        [
          226618.63,
          62058.98
        ],
        [
          226616.29,
          62059.58
        ],
        [
          226616.11,
          62059.61
        ],
        [
          226612.9,
          62056.97
        ],
        [
          226609.43,
          62060.97
        ],
        [
          226598.7,
          62062.92
        ],
        [
          226591.29,
          62064.81
        ],
        [
          226587.58,
          62066.18
        ],
        [
          226583.07,
          62068.24
        ],
        [
          226581.48,
          62068.92
        ],
        [
          226578.61,
          62070.21
        ],
        [
          226575.35,
          62071.49
        ],
        [
          226570.25,
          62073.768
        ],
        [
          226567.378,
          62071.571
        ],
        [
          226565.197,
          62068.481
        ],
        [
          226562.231,
          62072.417
        ],
        [
          226561.731,
          62073.08
        ],
        [
          226552.749,
          62073.601
        ],
        [
          226524.52,
          62068.01
        ],
        [
          226515.4,
          62074.54
        ],
        [
          226511.45,
          62084.67
        ],
        [
          226510.35,
          62084.47
        ],
        [
          226509.35,
          62084.27
        ],
        [
          226508.15,
          62084.07
        ],
        [
          226506.85,
          62083.97
        ],
        [
          226500.95,
          62083.37
        ],
        [
          226471.71,
          62068.92
        ],
        [
          226468.73,
          62067.38
        ],
        [
          226440.31,
          62055.61
        ],
        [
          226436.8,
          62051.99
        ],
        [
          226433.98,
          62048.87
        ],
        [
          226432.98,
          62047.81
        ],
        [
          226429.72,
          62044.94
        ],
        [
          226441.37,
          62000
        ],
        [
          226449.59,
          61966.96
        ],
        [
          226454.17,
          61950.55
        ],
        [
          226454.92,
          61947.71
        ],
        [
          226454.83,
          61944.45
        ],
        [
          226453.6,
          61940.7
        ],
        [
          226451.79,
          61936.67
        ],
        [
          226451.41,
          61935.14
        ],
        [
          226451.9,
          61933.5
        ],
        [
          226453.53,
          61931.49
        ],
        [
          226453.646,
          61931.276
        ],
        [
          226456.83,
          61925.39
        ],
        [
          226458.19,
          61921.19
        ],
        [
          226482.311,
          61860.407
        ],
        [
          226483.62,
          61857.11
        ],
        [
          226486.28,
          61853.01
        ],
        [
          226489.94,
          61848.29
        ],
        [
          226492.67,
          61845.65
        ],
        [
          226496.51,
          61842.13
        ],
        [
          226498.27,
          61840.65
        ],
        [
          226498.56,
          61840.35
        ],
        [
          226501.2,
          61837.1
        ],
        [
          226508.14,
          61826.59
        ],
        [
          226509.43,
          61825.23
        ],
        [
          226510.58,
          61823.74
        ],
        [
          226510.68,
          61823.54
        ],
        [
          226521.06,
          61815.28
        ],
        [
          226526.05,
          61811.24
        ],
        [
          226528.31,
          61809.57
        ],
        [
          226530.65,
          61807.01
        ],
        [
          226531.93,
          61805.54
        ],
        [
          226533.01,
          61804.55
        ],
        [
          226533.78,
          61803.47
        ],
        [
          226533.88,
          61803.37
        ],
        [
          226533.97,
          61803.09
        ],
        [
          226534.58,
          61802.78
        ],
        [
          226536.28,
          61801.48
        ],
        [
          226537.38,
          61800.48
        ],
        [
          226538.28,
          61799.38
        ],
        [
          226538.68,
          61798.58
        ],
        [
          226539.08,
          61797.68
        ],
        [
          226539.28,
          61796.88
        ],
        [
          226539.07,
          61795.8
        ],
        [
          226538.88,
          61794.78
        ],
        [
          226537.2,
          61791.048
        ],
        [
          226536.86,
          61789.89
        ],
        [
          226537.4,
          61787.33
        ],
        [
          226536.78,
          61787.08
        ],
        [
          226534.68,
          61786.38
        ],
        [
          226533.28,
          61785.58
        ],
        [
          226532.28,
          61785.08
        ],
        [
          226531.38,
          61784.48
        ],
        [
          226530.88,
          61783.98
        ],
        [
          226530.28,
          61780.88
        ],
        [
          226529.78,
          61778.38
        ],
        [
          226529.68,
          61777.98
        ],
        [
          226529.58,
          61774.88
        ],
        [
          226529.38,
          61767.88
        ],
        [
          226529.48,
          61766.58
        ],
        [
          226529.28,
          61765.48
        ],
        [
          226528.48,
          61763.78
        ],
        [
          226526.18,
          61759.98
        ],
        [
          226524.18,
          61757.88
        ],
        [
          226523.98,
          61757.68
        ],
        [
          226521.58,
          61755.48
        ],
        [
          226520.88,
          61755.08
        ],
        [
          226517.18,
          61752.68
        ],
        [
          226509.48,
          61748.88
        ],
        [
          226507.58,
          61747.98
        ],
        [
          226507.08,
          61747.68
        ],
        [
          226505.48,
          61747.28
        ],
        [
          226504.48,
          61746.98
        ],
        [
          226502.08,
          61747.08
        ],
        [
          226500.18,
          61747.18
        ],
        [
          226499.18,
          61746.98
        ],
        [
          226498.08,
          61746.78
        ],
        [
          226497.78,
          61746.58
        ],
        [
          226496.28,
          61745.38
        ],
        [
          226489.88,
          61739.68
        ],
        [
          226482.48,
          61733.98
        ],
        [
          226475.88,
          61727.48
        ],
        [
          226469.08,
          61721.28
        ],
        [
          226467.88,
          61720.28
        ],
        [
          226467.58,
          61719.98
        ],
        [
          226466.08,
          61719.18
        ],
        [
          226465.88,
          61719.08
        ],
        [
          226462.98,
          61718.48
        ],
        [
          226434.38,
          61713.98
        ],
        [
          226433.08,
          61713.78
        ],
        [
          226431.68,
          61713.38
        ],
        [
          226430.28,
          61712.88
        ],
        [
          226427.48,
          61711.68
        ],
        [
          226427.08,
          61711.38
        ],
        [
          226426.68,
          61711.28
        ],
        [
          226426.18,
          61711.28
        ],
        [
          226423.58,
          61711.68
        ],
        [
          226423.08,
          61711.88
        ],
        [
          226422.68,
          61711.98
        ],
        [
          226422.58,
          61712.08
        ],
        [
          226421.98,
          61711.58
        ],
        [
          226418.68,
          61709.28
        ],
        [
          226417.38,
          61708.18
        ],
        [
          226414.68,
          61706.08
        ],
        [
          226412.78,
          61704.18
        ],
        [
          226408.88,
          61700.18
        ],
        [
          226406.38,
          61697.78
        ],
        [
          226403.88,
          61695.68
        ],
        [
          226400.68,
          61693.08
        ],
        [
          226397.18,
          61690.98
        ],
        [
          226393.58,
          61688.98
        ],
        [
          226389.78,
          61687.48
        ],
        [
          226385.68,
          61685.98
        ],
        [
          226377.38,
          61682.98
        ],
        [
          226373.98,
          61681.88
        ],
        [
          226373.42,
          61681.66
        ],
        [
          226373.38,
          61681.18
        ],
        [
          226373.28,
          61679.68
        ],
        [
          226373.08,
          61677.68
        ],
        [
          226372.68,
          61675.08
        ],
        [
          226372.28,
          61673.18
        ],
        [
          226371.98,
          61671.28
        ],
        [
          226371.08,
          61668.08
        ],
        [
          226369.88,
          61665.08
        ],
        [
          226369.08,
          61663.48
        ],
        [
          226368.68,
          61662.28
        ],
        [
          226368.18,
          61661.48
        ],
        [
          226367.38,
          61660.48
        ],
        [
          226366.58,
          61659.68
        ],
        [
          226365.18,
          61658.88
        ],
        [
          226355.78,
          61653.98
        ],
        [
          226353.88,
          61652.88
        ],
        [
          226353.08,
          61652.38
        ],
        [
          226351.18,
          61650.98
        ],
        [
          226349.98,
          61649.88
        ],
        [
          226349.08,
          61648.78
        ],
        [
          226347.58,
          61647.68
        ],
        [
          226346.18,
          61646.78
        ],
        [
          226344.88,
          61645.88
        ],
        [
          226343.58,
          61645.08
        ],
        [
          226342.68,
          61644.48
        ],
        [
          226341.58,
          61643.78
        ],
        [
          226338.08,
          61641.98
        ],
        [
          226336.98,
          61641.38
        ],
        [
          226334.98,
          61640.38
        ],
        [
          226332.46,
          61638.05
        ],
        [
          226327.02,
          61632.92
        ],
        [
          226325.75,
          61631.66
        ],
        [
          226323.33,
          61629.53
        ],
        [
          226320.42,
          61627.01
        ],
        [
          226315.86,
          61623.43
        ],
        [
          226314.78,
          61622.55
        ],
        [
          226314.01,
          61621.58
        ],
        [
          226313.13,
          61619.74
        ],
        [
          226312.16,
          61618.09
        ],
        [
          226311.97,
          61617.03
        ],
        [
          226310.03,
          61614.12
        ],
        [
          226309.34,
          61613.15
        ],
        [
          226308.08,
          61611.6
        ],
        [
          226306.82,
          61610.34
        ],
        [
          226304.49,
          61608.69
        ],
        [
          226304.19,
          61608
        ]
      ]
    ]
  }
   }

]
}
