{
"type": "FeatureCollection",
"name": "liskeard_one",
"crs": { "type": "name", "properties": { "name": "urn:ogc:def:crs:EPSG::27700" } },
"features": [
{ "type": "Feature", "properties": { "gml_id": "PREDEFINED.fid--1bd401b1_199b20dade4_36cc", "INSPIREID": 63794777, "LABEL": 63794777, "NATIONALCADASTRALREFERENCE": 63794777, "VALIDFROM": "2025-01-06T00:00:00Z", "BEGINLIFESPANVERSION": "2025-01-06T13:53:43.193Z" }, 
  "geometry": {
    "type": "Polygon",
    "coordinates": [
      [
        [
          226599.42,
          61821.59
        ],
        [
          226610.12,
          61793.61
        ],
        [
          226613.83,
          61784.35
        ],
        [
          226615.69,
          61778.72
        ],
        [
          226616.66,
          61775.8
        ],
        [
          226617.54,
          61773.99
        ],
        [
          226618.42,
          61772.08
        ],
        [
          226620.19,
          61769.26
        ],
        [
          226621.87,
          61766.33
        ],
        [
          226623.44,
          61763.51
        ],
        [
          226623.74,
          61762.91
        ],
        [
          226625.09,
          61759.67
        ],
        [
          226626.31,
          61756.34
        ],
        [
          226626.47,
          61756.06
        ],
        [
          226630.17,
          61746.93
        ],
        [
          226634.4,
          61737.54
        ],
        [
          226641.18,
          61725.78
        ],
        [
          226662.04,
          61734.14
        ],
        [
          226665.52,
          61735.5
        ],
        [
          226669.02,
          61737.16
        ],
        [
          226672.49,
          61738.94
        ],
        [
          226676.3,
          61740.7
        ],
        [
          226678.13,
          61741.86
        ],
        [
          226680.49,
          61742.9
        ],
        [
          226681.11,
          61743.11
        ],
        [
          226683.46,
          61743.84
        ],
        [
          226690.34,
          61746.14
        ],
        [
          226694.85,
          61748.24
        ],
        [
          226699.56,
          61749.71
        ],
        [
          226702.76,
          61750.76
        ],
        [
          226703.88,
          61751.06
        ],
        [
          226727.92,
          61755.44
        ],
        [
          226736.22,
          61757.25
        ],
        [
          226738.9,
          61758.1
        ],
        [
          226739.51,
          61758.21
        ],
        [
          226761.65,
          61760.76
        ],
        [
          226764.17,
          61761.08
        ],
        [
          226766.29,
          61761.19
        ],
        [
          226767.29,
          61761.09
        ],
        [
          226770.72,
          61760.19
        ],
        [
          226775.04,
          61759.09
        ],
        [
          226781.4,
          61757.7
        ],
        [
          226784.71,
          61757.28
        ],
        [
          226791.79,
          61755.95
        ],
        [
          226798.87,
          61754.27
        ],
        [
          226808.07,
          61751.62
        ],
        [
          226825.6,
          61746.86
        ],
        [
          226843.98,
          61741.95
        ],
        [
          226858.99,
          61738.17
        ],
        [
          226865.47,
          61736.73
        ],
        [
          226873.17,
          61734.52
        ],
        [
          226880.36,
          61732.48
        ],
        [
          226888.85,
          61730.18
        ],
        [
          226897.43,
          61728.68
        ],
        [
          226901.32,
          61728.3
        ],
        [
          226904.29,
          61728.06
        ],
        [
          226907.91,
          61727.71
        ],
        [
          226910.83,
          61727.44
        ],
        [
          226913.93,
          61727.18
        ],
        [
          226917.65,
          61726.62
        ],
        [
          226919.39,
          61725.99
        ],
        [
          226927.14,
          61728.52
        ],
        [
          226928.88,
          61729.34
        ],
        [
          226931.14,
          61729.49
        ],
        [
          226939.38,
          61730.72
        ],
        [
          226948.39,
          61732
        ],
        [
          226953.09,
          61732.4
        ],
        [
          226962.77,
          61733.52
        ],
        [
          226972.07,
          61734.97
        ],
        [
          226977.69,
          61736.4
        ],
        [
          226986,
          61756.68
        ],
        [
          226984.67,
          61762.44
        ],
        [
          226982.64,
          61770.17
        ],
        [
          226979.85,
          61780.17
        ],
        [
          226978.85,
          61784.13
        ],
        [
          226977.97,
          61788.85
        ],
        [
          226977.16,
          61793.85
        ],
        [
          226973.74,
          61815.57
        ],
        [
          226973.3,
          61819.53
        ],
        [
          226973.03,
          61822.91
        ],
        [
          226972.54,
          61834.29
        ],
        [
          226972.53,
          61834.92
        ],
        [
          226972.77,
          61840.02
        ],
        [
          226973.54,
          61858.12
        ],
        [
          226974.28,
          61866.62
        ],
        [
          226975.19,
          61878.02
        ],
        [
          226975.41,
          61882.3
        ],
        [
          226976.09,
          61896.64
        ],
        [
          226976.87,
          61915.04
        ],
        [
          226977.17,
          61929.05
        ],
        [
          226977.36,
          61942.2
        ],
        [
          226977.4,
          61951.46
        ],
        [
          226976.08,
          62000
        ],
        [
          226975.966,
          62002.008
        ],
        [
          226975.031,
          62008.148
        ],
        [
          226974.038,
          62019.26
        ],
        [
          226972.319,
          62034.077
        ],
        [
          226970.599,
          62044.33
        ],
        [
          226967.754,
          62053.855
        ],
        [
          226960.727,
          62050.289
        ],
        [
          226955.906,
          62050.316
        ],
        [
          226928.6,
          62050.47
        ],
        [
          226906.459,
          62050.934
        ],
        [
          226880.052,
          62051.487
        ],
        [
          226857.166,
          62051.111
        ],
        [
          226844.109,
          62049.527
        ],
        [
          226819.24,
          62046.51
        ],
        [
          226815.77,
          62046.11
        ],
        [
          226816.45,
          62040.47
        ],
        [
          226817.05,
          62035.87
        ],
        [
          226817.05,
          62031.97
        ],
        [
          226816.85,
          62028.77
        ],
        [
          226816.75,
          62027.57
        ],
        [
          226816.55,
          62026.37
        ],
        [
          226816.45,
          62025.37
        ],
        [
          226816.45,
          62024.47
        ],
        [
          226816.35,
          62024.07
        ],
        [
          226816.35,
          62023.57
        ],
        [
          226816.55,
          62022.57
        ],
        [
          226816.55,
          62020.67
        ],
        [
          226819.49,
          62000
        ],
        [
          226823.01,
          61972.67
        ],
        [
          226823.71,
          61968.59
        ],
        [
          226824.82,
          61963.03
        ],
        [
          226826.23,
          61955.48
        ],
        [
          226829.64,
          61942.27
        ],
        [
          226831.14,
          61935.22
        ],
        [
          226833.64,
          61927.05
        ],
        [
          226835.85,
          61918.77
        ],
        [
          226836.81,
          61913.6
        ],
        [
          226837.47,
          61906.27
        ],
        [
          226836.85,
          61896.47
        ],
        [
          226836.22,
          61891.04
        ],
        [
          226836.23,
          61887.14
        ],
        [
          226836.32,
          61882.36
        ],
        [
          226836.88,
          61877.79
        ],
        [
          226839.45,
          61872.18
        ],
        [
          226842.1,
          61869.14
        ],
        [
          226843.01,
          61867.97
        ],
        [
          226845.82,
          61864.76
        ],
        [
          226844.01,
          61863.67
        ],
        [
          226840.91,
          61862.37
        ],
        [
          226837.71,
          61861.37
        ],
        [
          226824.91,
          61856.57
        ],
        [
          226816.51,
          61854.07
        ],
        [
          226815.31,
          61853.77
        ],
        [
          226815.01,
          61853.77
        ],
        [
          226814.01,
          61853.27
        ],
        [
          226812.81,
          61852.27
        ],
        [
          226811.41,
          61851.27
        ],
        [
          226809.71,
          61850.27
        ],
        [
          226807.51,
          61848.97
        ],
        [
          226805.51,
          61847.87
        ],
        [
          226799.51,
          61844.97
        ],
        [
          226797.51,
          61843.97
        ],
        [
          226795.22,
          61842.95
        ],
        [
          226793.91,
          61842.47
        ],
        [
          226793.11,
          61842.27
        ],
        [
          226790.61,
          61841.87
        ],
        [
          226785.31,
          61841.67
        ],
        [
          226781.01,
          61841.67
        ],
        [
          226776.11,
          61841.97
        ],
        [
          226771.01,
          61842.37
        ],
        [
          226766.31,
          61842.87
        ],
        [
          226762.31,
          61843.27
        ],
        [
          226758.41,
          61843.67
        ],
        [
          226752.11,
          61844.87
        ],
        [
          226747.51,
          61845.87
        ],
        [
          226745.61,
          61846.27
        ],
        [
          226743.91,
          61846.67
        ],
        [
          226742.21,
          61846.87
        ],
        [
          226740.01,
          61846.57
        ],
        [
          226730.31,
          61844.37
        ],
        [
          226725.21,
          61843.44
        ],
        [
          226716.4,
          61841.99
        ],
        [
          226699.08,
          61839.08
        ],
        [
          226684.96,
          61836.9
        ],
        [
          226677.15,
          61836.15
        ],
        [
          226669.84,
          61835.41
        ],
        [
          226662.62,
          61835.07
        ],
        [
          226653.72,
          61834.72
        ],
        [
          226649.61,
          61834.6
        ],
        [
          226641.49,
          61833.83
        ],
        [
          226634.57,
          61832.9
        ],
        [
          226628.62,
          61832.05
        ],
        [
          226620.87,
          61830.21
        ],
        [
          226617.95,
          61829.22
        ],
        [
          226612.34,
          61827.3
        ],
        [
          226605.89,
          61824.99
        ],
        [
          226599.42,
          61821.59
        ]
      ]
    ]
  }
   }

]
}
