{"type":"FeatureCollection","name":"LS6_1AL","crs":{"type":"name","properties":{"name":"urn:ogc:def:crs:OGC:1.3:CRS84"}},"features":[{"type":"Feature","properties":{"mapit_code":"LS61AL","postcodes":"LS6 1AL"},"geometry":{"type":"Polygon","coordinates":[[
  
  [428684.0,434930.0],
  [428747.0,434896.0],
  [428820.0,434861.0],
  [428866.0,434829.0],
  [428843.0,434783.0],
  [428725.0,434843.0],
  [428731.0,434861.0],
  [428701.0,434876],
  [428690.0,434890],
  [428679.0,434901.0],
  [428677.0,434911],
  [428684.0,434930.0]

]]}}]}